P/2010 H4 (Scotti),e,2.3199,44.7559,179.5624,6.586838,0.0583027,0.26815928,207.5969,03/22.0/2020,2000,g 10.5,4.0
# From MPC 74637
P/2010 H5 (Scotti),e,14.0733,24.8113,175.3505,7.153989,0.0515088,0.15439379,186.9247,03/22.0/2020,2000,g 13.0,2.0
# From MPC 98558
P/2010 J3 (McMillan),e,13.2905,106.4060,157.5546,8.966471,0.0367089,0.72762231,128.1919,03/22.0/2020,2000,g 11.0,4.0
# From MPC 84315
P/2010 JC81 (WISE),e,38.6745,30.8359,12.4663,8.113682,0.0426459,0.77628064,139.0426,03/22.0/2020,2000,g  9.0,4.0
# From MPC 74248
P/2010 T2 (PANSTARRS),e,7.9556,59.2904,354.1736,5.493118,0.0765554,0.32183038,247.4580,03/22.0/2020,2000,g 11.5,4.0
# From MPC 98558
P/2010 TO20 (LINEAR-Grauer),e,2.4796,43.3016,266.8390,5.826686,0.0700764,0.05392919,291.7420,03/22.0/2020,2000,g  9.0,4.0
# From MPC 82316
P/2010 U1 (Boattini),e,8.2139,280.7211,85.8622,6.514898,0.0592711,0.24739465,220.1290,03/22.0/2020,2000,g  9.5,4.0
# From MPC119994
C/2010 U3 (Boattini),e,55.5143,43.0497,88.0816,2935,0.0000062,0.99712297,0.0000,02/26.3075/2019,2000,g  1.0,4.0
# From MPC 79021
P/2010 UH55 (Spacewatch),e,8.0559,233.0756,225.1810,6.648221,0.0574971,0.56391666,187.3635,03/22.0/2020,2000,g 11.0,4.0
# From MPC 75009
P/2010 WK (LINEAR),e,11.3998,11.3094,41.0242,5.758169,0.0713309,0.68958352,246.9847,03/22.0/2020,2000,g 14.5,2.0
# From MPC 82317
P/2011 A2 (Scotti),e,4.4754,54.6728,94.5590,3.104546,0.1801801,0.49939634,248.3316,03/22.0/2020,2000,g 16.5,4.0
# From MPC 84021
P/2011 C2 (Gibbs),e,10.8867,12.1176,161.1122,7.413522,0.0488278,0.26934909,146.3581,03/22.0/2020,2000,g  9.0,4.0
# From MPC 79866
P/2011 FR143 (Lemmon),e,15.9965,190.9468,350.1701,6.853788,0.0549298,0.45158870,181.4452,03/22.0/2020,2000,g 14.0,2.0
# From MPC 82317
P/2011 JB15 (Spacewatch-Boattini),e,19.1457,153.6176,110.9023,7.350737,0.0494547,0.31852143,147.3704,03/22.0/2020,2000,g  9.0,4.0
# From MPEC 2020-AA5
C/2011 KP36 (Spacewatch),e,18.9824,173.3270,180.6016,38.72457,0.0040900,0.87400780,5.7051,03/22.0/2020,2000,g  4.5,4.0
# From MPC 87913
P/2011 N1 (ASH),e,35.7042,77.6103,330.3602,6.251634,0.0630542,0.54325732,180.5832,03/22.0/2020,2000,g 11.5,4.0
# From MPC 75714
P/2011 NO1 (Elenin),e,15.2488,295.7943,263.8466,5.521863,0.0759584,0.77521936,254.0694,03/22.0/2020,2000,g 15.0,4.0
# From MPC 82318
P/2011 P1 (McNaught),e,5.6549,4.2468,348.8638,7.472550,0.0482504,0.32628530,170.6978,03/22.0/2020,2000,g  9.0,4.0
# From MPC 77806
P/2011 Q3 (McNaught),e,6.0554,32.0244,310.9558,4.970793,0.0889335,0.53228867,281.6764,03/22.0/2020,2000,g 13.5,4.0
# From MPC 90269
P/2011 R3 (Novichonok-Gerke),e,19.2334,189.8159,224.7641,4.784114,0.0941894,0.27123048,273.3171,03/22.0/2020,2000,g 11.0,4.0
# From MPC 98558
P/2011 S1 (Gibbs),e,2.6832,218.9262,192.6409,8.592621,0.0391305,0.19981830,80.1437,03/22.0/2020,2000,g  8.0,4.0
# From MPC115880
P/2011 U2 (Bressi),e,10.0203,263.7484,150.5837,4.940905,0.0897417,0.12995145,251.4198,03/22.0/2020,2000,g 10.0,4.0
# From MPC 79022
P/2011 UA134 (Spacewatch-PANSTARRS),e,10.4482,40.4547,32.4885,5.600933,0.0743556,0.62935798,226.4726,03/22.0/2020,2000,g 17.5,4.0
# From MPC 77406
P/2011 V1 (Boattini),e,7.3785,46.8635,269.2085,3.853726,0.1302815,0.55058305,69.9586,03/22.0/2020,2000,g 15.5,4.0
# From MPC 82718
P/2011 W1 (PANSTARRS),e,3.7186,161.7901,282.7282,4.659559,0.0979911,0.28680903,292.5984,03/22.0/2020,2000,g 11.5,4.0
# From MPC 79342
P/2011 Y2 (Boattini),e,6.3718,309.3652,131.9681,6.239473,0.0632386,0.70918433,185.6366,03/22.0/2020,2000,g 15.0,4.0
# From MPC 94669
P/2012 B1 (PANSTARRS),e,7.6183,36.1883,162.6016,6.525380,0.0591283,0.41035930,143.9636,03/22.0/2020,2000,g  9.0,4.0
# From MPC 78590
P/2012 C3 (PANSTARRS),e,9.0920,135.3677,344.9542,9.748681,0.0323806,0.63011148,359.9758,10/06.0/2011,2000,g 13.0,4.0
# From MPC 84931
P/2012 F2 (PANSTARRS),e,14.7331,227.0740,33.2115,6.326914,0.0619322,0.54308424,156.9827,03/22.0/2020,2000,g 12.0,4.0
# From MPC107683
C/2012 F3 (PANSTARRS),h,04/07.6420/2015,11.3343,164.5395,104.2664,1.004447,3.466152,2000,6.5,4.0
# From MPC 79344
P/2012 G1 (PANSTARRS),e,11.6925,282.5440,286.1149,4.172871,0.1156250,0.38072240,359.9500,06/01.0/2012,2000,g 15.0,4.0
# From MPC 80898
P/2012 K3 (Gibbs),e,13.1947,125.8105,172.1112,3.623828,0.1428739,0.42349572,31.0830,03/22.0/2020,2000,g 15.0,4.0
# From MPC112389
C/2012 LP26 (Palomar),h,08/18.5475/2015,25.3468,153.9375,145.3126,1.003310,6.542394,2000,6.5,4.0
# From MPC 88326
P/2012 NJ (La Sagra),e,84.6301,315.5656,338.3065,8.456375,0.0400800,0.84752778,113.8051,03/22.0/2020,2000,g 14.5,4.0
# From MPC 81470
P/2012 O1 (McNaught),e,7.4335,91.9851,238.2030,3.539387,0.1480171,0.59445242,57.0836,03/22.0/2020,2000,g 17.5,4.0
# From MPC 80899
P/2012 O2 (McNaught),e,24.4860,120.6807,183.3689,3.621649,0.1430028,0.53281406,45.8928,03/22.0/2020,2000,g 17.0,4.0
# From MPC 82720
P/2012 O3 (McNaught),e,16.6102,336.4035,344.6819,4.576478,0.1006716,0.64676632,279.5794,03/22.0/2020,2000,g 16.5,4.0
# From MPC 82720
P/2012 S2 (La Sagra),e,8.6875,51.1927,312.5164,4.409282,0.1064516,0.69105325,297.3102,03/22.0/2020,2000,g 17.0,4.0
# From MPC 82720
P/2012 SB6 (Lemmon),e,10.9289,8.2100,14.3940,3.825156,0.1317438,0.40476748,348.2115,03/22.0/2020,2000,g 14.0,4.0
# From MPC 82320
P/2012 T2 (PANSTARRS),e,12.5546,73.7361,310.4655,5.739942,0.0716709,0.16027125,181.2722,03/22.0/2020,2000,g 10.0,4.0
# From MPC 80900
P/2012 T3 (PANSTARRS),e,9.5680,114.4067,195.4210,6.153425,0.0645697,0.61701334,186.1831,03/22.0/2020,2000,g 15.0,4.0
# From MPC 87914
P/2012 TK8 (Tenagra),e,6.3406,288.9710,127.7151,4.132803,0.1173105,0.27432587,291.7412,03/22.0/2020,2000,g 13.0,4.0
# From MPC 82720
P/2012 U2 (PANSTARRS),e,10.7446,185.2574,228.3782,7.145699,0.0515985,0.49735784,138.8748,03/22.0/2020,2000,g 12.5,4.0
# From MPC 84024
P/2012 US27 (Siding Spring),e,39.3221,49.1679,0.8413,5.165865,0.0839440,0.64723852,219.2857,03/22.0/2020,2000,g 13.5,4.0
# From MPC 82721
P/2012 WA34 (Lemmon-PANSTARRS),e,6.1233,94.5048,352.7833,4.773318,0.0945091,0.34027823,246.8090,03/22.0/2020,2000,g 13.5,4.0
# From MPC 84024
P/2013 A2 (Scotti),e,3.3615,355.8192,134.5645,4.012597,0.1226213,0.45432479,319.4298,03/22.0/2020,2000,g 15.5,4.0
# From MPC 82721
P/2013 AL76 (Catalina),e,144.7904,145.9392,27.1489,6.498571,0.0594946,0.68607684,158.0258,03/22.0/2020,2000,g 16.0,4.0
# From MPC115880
C/2013 C2 (Tenagra),e,21.3377,247.5294,309.5262,16.01893,0.0153728,0.42843699,25.3841,03/22.0/2020,2000,g  4.0,4.0
# From MPC 88695
P/2013 EW90 (Tenagra),e,31.7857,160.3024,346.3795,4.116355,0.1180144,0.19498302,320.9415,03/22.0/2020,2000,g 12.0,4.0
# From MPC 91612
P/2013 G1 (Kowalski),e,5.4707,221.4257,51.3179,6.884702,0.0545603,0.51346254,124.9736,03/22.0/2020,2000,g 11.0,4.0
# From MPC 84025
P/2013 G4 (PANSTARRS),e,5.9161,339.6560,214.7287,4.438623,0.1053978,0.40984318,273.6358,03/22.0/2020,2000,g 15.0,4.0
# From MPC 91613
P/2013 J2 (McNaught),e,15.5353,289.4282,37.7114,6.224110,0.0634729,0.65719777,152.3503,03/22.0/2020,2000,g 13.0,4.0
# From MPC 87066
P/2013 J4 (PANSTARRS),e,5.0352,84.0011,118.7706,2.475100,0.2531133,0.23099371,359.9443,11/04.0/2013,2000,g 14.0,4.0
# From MPC 86229
P/2013 N3 (PANSTARRS),e,2.1724,17.5256,323.8154,7.391103,0.0490501,0.59271058,109.3032,03/22.0/2020,2000,g 13.0,4.0
# From MPC 85834
P/2013 N5 (PANSTARRS),e,23.3989,187.1782,176.8803,6.800965,0.0555710,0.73136181,136.4954,03/22.0/2020,2000,g 17.0,4.0
# From MPC 87479
P/2013 O2 (PANSTARRS),e,13.3152,207.1819,214.1556,3.792202,0.1334649,0.44684952,303.0792,03/22.0/2020,2000,g 14.0,4.0
# From MPC 85834
P/2013 P1 (PANSTARRS),e,18.7159,160.6519,138.0225,8.564740,0.0393217,0.60615968,101.3657,03/22.0/2020,2000,g 12.0,4.0
# From MPC 94671
P/2013 R3 (Catalina-PANSTARRS),e,0.8653,342.0053,11.1489,3.034087,0.1864928,0.27487663,87.9196,03/22.0/2020,2000,g 14.0,4.0
# From unp
P/2013 R3-A (Catalina-PANSTARRS),e,0.8647,341.9722,11.1878,3.033946,0.1865058,0.27484596,87.9486,03/22.0/2020,2000,g  9.0,4.0
# From MPEC 2015-M77
P/2013 R3-B (Catalina-PANSTARRS),e,0.8659,342.0281,11.1227,3.034163,0.1864857,0.27489174,87.9041,03/22.0/2020,2000,g  9.0,4.0
# From MPC 85835
P/2013 T1 (PANSTARRS),e,24.2577,10.0998,346.0621,5.863218,0.0694225,0.62312141,168.4330,03/22.0/2020,2000,g 16.5,4.0
# From MPC 86643
P/2013 T2 (Schwartz),e,9.4563,0.8250,345.4500,3.487940,0.1513040,0.50103256,17.0160,03/22.0/2020,2000,g 16.0,4.0
# From MPC 88696
P/2013 TL117 (Lemmon),e,9.3649,3.3153,112.2518,3.609029,0.1437535,0.68913544,320.1518,03/22.0/2020,2000,g 17.5,4.0
# From MPC110080
C/2013 US10 (Catalina),h,11/16.4825/2015,148.7979,186.3400,340.5666,1.000610,0.822784,2000,4.4,4.0
# From MPC111767
C/2013 V4 (Catalina),e,67.8740,55.6211,40.3526,4025,0.0000039,0.99871225,0.0000,10/05.7709/2015,2000,g  6.0,4.0
# From MPC 91613
P/2013 W1 (PANSTARRS),e,4.6954,117.8488,1.3053,3.490514,0.1511367,0.59280780,333.9554,03/22.0/2020,2000,g 17.5,4.0
# From MPC111767
C/2013 X1 (PANSTARRS),h,04/19.6234/2016,163.1901,131.5896,165.1318,1.000358,1.320080,2000,10.5,2.0
# From MPC101095
P/2013 YG46 (Spacewatch),e,7.8565,48.8862,242.4524,3.276764,0.1661638,0.45486035,190.5434,03/22.0/2020,2000,g 10.0,4.0
# From MPC 89728
P/2014 A2 (Hill),e,24.5512,106.6263,356.2947,5.925073,0.0683382,0.64595993,160.3105,03/22.0/2020,2000,g 15.0,4.0
# From MPC 92981
P/2014 A3 (PANSTARRS),e,13.6822,230.3287,212.4118,4.637595,0.0986881,0.24549835,249.3782,03/22.0/2020,2000,g 12.0,4.0
# From MPC108592
C/2014 A4 (SONEAR),e,121.3753,29.6849,356.5948,3068,0.0000058,0.99863950,0.0000,09/04.1905/2015,2000,g  6.0,4.0
# From MPC 96865
C/2014 AA52 (Catalina),h,02/26.8802/2015,105.1250,330.3309,292.1494,1.000071,2.001158,2000,10.0,4.0
# From MPC119994
C/2014 B1 (Schwartz),h,09/10.0363/2017,28.3985,161.4039,345.8313,1.000051,9.556126,2000,4.0,4.0
# From MPC102095
P/2014 C1 (TOTAS),e,2.6820,167.7968,24.1510,3.043684,0.1856115,0.44698892,63.7933,03/22.0/2020,2000,g 15.5,4.0
# From MPC 91614
P/2014 E1 (Larson),e,15.9766,39.0416,185.9956,3.712836,0.1377671,0.42364261,293.1651,03/22.0/2020,2000,g 14.0,4.0
# From MPC 94280
